0 FENGYUN 1C DEB
1 37015U 99025ECX 13269.14715462  .00009105  00000-0  20491-2 0   402
2 37015 096.3939 031.6564 0082209 211.8604 147.2999 14.54481170252628
